TURKSAT 5A              
1 47306U 21001A   24328.01780272  .00000160  00000+0  00000+0 0  9995
2 47306   0.0367 100.2540 0000251 213.9734 145.5933  1.00272410 14245
TIANTONG-1 3            
1 47321U 21003A   24328.52806317 -.00000151  00000+0  00000+0 0  9990
2 47321   2.5687 315.4788 0005667 301.7586  77.3522  1.00274462 14240
TJS-6                   
1 47613U 21010A   24328.56780370  .00000051  00000+0  00000+0 0  9994
2 47613   0.0440 255.1204 0003426 354.4690 196.3604  1.00269681 14081
SBIRS GEO-5 (USA 315)   
1 48618U 21042A   24328.23020201  .00000116  00000+0  00000+0 0  9991
2 48618   5.9029 326.0526 0002545 280.9374 279.4935  1.00272717 13030
FENGYUN 4B              
1 48808U 21047A   24327.70864431 -.00000324  00000+0  00000+0 0  9991
2 48808   0.0740 287.1498 0008436 130.2171   4.5634  1.00267240 12834
SXM-8                   
1 48838U 21049A   24326.92266378 -.00000202  00000+0  00000+0 0  9990
2 48838   0.0390  67.7238 0004687 328.7263 271.9475  1.00269985 12855
TIANLIAN 1-05           
1 49011U 21063A   24328.51511797  .00000116  00000+0  00000+0 0  9998
2 49011   0.1327  61.6791 0005163 186.8042  16.7194  1.00272242 12353
STAR ONE D2             
1 49055U 21069A   24327.39007929 -.00000260  00000+0  00000+0 0  9995
2 49055   0.0060 342.7123 0002604 232.0261 277.4663  1.00269629 12206
EUTELSAT QUANTUM        
1 49056U 21069B   24328.52137337  .00000134  00000+0  00000+0 0  9998
2 49056   0.0165 358.6712 0002573 247.5658  52.1459  1.00272291 12209
ZHONGXING-2E            
1 49062U 21071A   24328.57837059 -.00000283  00000+0  00000+0 0  9997
2 49062   0.0213  24.6708 0002434 246.7258  97.9160  1.00269520 12317
TJS-7                   
1 49115U 21077A   24328.51855022 -.00000116  00000+0  00000+0 0  9991
2 49115   0.1172 270.8456 0002360 292.8442 306.5068  1.00270287  3847
CHINASAT 9B             
1 49125U 21080A   24326.68289432 -.00000310  00000+0  00000+0 0  9994
2 49125   0.0189  55.1985 0003669 184.8493 168.3450  1.00268052 11907
SHIJIAN-21 (SJ-21)      
1 49330U 21094A   24328.67000632 -.00000204  00000+0  00000+0 0  9993
2 49330  10.1120  44.0805 0076544  36.8167  13.3186  1.00272346 11531
SES-17                  
1 49332U 21095A   24324.99607530 -.00000270  00000+0  00000+0 0  9990
2 49332   0.0116 354.1893 0001357 244.2094 112.6063  1.00269091 12094
SYRACUSE 4A             
1 49333U 21095B   24323.94979985  .00000137  00000+0  00000+0 0  9992
2 49333   0.0123 329.9726 0001277 276.1134 199.8452  1.00269924 12193
QZS-1R                  
1 49336U 21096A   24327.68278156 -.00000236  00000+0  00000+0 0  9994
2 49336  36.2768  88.1320 0750828 270.8841  84.7974  1.00268536 11283
ZHONGXING-1D            
1 49505U 21114A   24328.55959497 -.00000328  00000+0  00000+0 0  9996
2 49505   0.0320 264.7668 0002529 341.3088 148.5904  1.00273705 11103
STPSAT-6                
1 49817U 21118A   24328.52410458 -.00000037  00000+0  00000+0 0  9999
2 49817   0.0429 102.2386 0001936 178.9531 218.7011  1.00273433 10847
LDPE-1                  
1 49818U 21118B   24328.43284209 -.00000206  00000+0  00000+0 0  9991
2 49818   2.7657  85.8423 0000212 176.0806 278.3813  1.00627241 10918
EXPRESS AMU-7           
1 50001U 21123A   24326.42797402 -.00000240  00000+0  00000+0 0  9992
2 50001   0.0201 299.0531 0000245 202.9843 217.9803  1.00272327 10802
EXPRESS AMU-3           
1 50002U 21123B   24327.54161634 -.00000317  00000+0  00000+0 0  9994
2 50002   0.0161 306.9224 0000486 170.2519 242.8472  1.00272705  1303
TIANLIAN 2-02           
1 50005U 21124A   24328.55967093 -.00000006  00000+0  00000+0 0  9998
2 50005   0.2595 273.6823 0004110 348.4997 173.2902  1.00272274 10891
TURKSAT 5B              
1 50212U 21126A   24327.15553021  .00000149  00000+0  00000+0 0  9994
2 50212   0.0683 347.2849 0004068 308.9178 223.4624  1.00272101 10569
INMARSAT 6-F1           
1 50319U 21128A   24327.95681264 -.00000166  00000+0  00000+0 0  9993
2 50319   0.0125 299.4022 0000323  42.1747 149.0645  1.00270944 10534
SHIYAN 12 01 (SY-12 01) 
1 50321U 21129A   24328.68502549 -.00000328  00000+0  00000+0 0  9996
2 50321   2.1973  88.2097 0002468 240.7258 113.9466  1.00102138 10790
SHIYAN 12 02 (SY-12 02) 
1 50322U 21129B   24328.28903486  .00000103  00000+0  00000+0 0  9998
2 50322   2.1966  88.2380 0004548 173.2191 284.3874  1.00088691 10776
TJS-9                   
1 50574U 21135A   24328.51916750 -.00000290  00000+0  00000+0 0  9996
2 50574   0.0627 263.8524 0003068 306.1195 177.0539  1.00275950 10743
GOES 18                 
1 51850U 22021A   24328.48470977  .00000105  00000+0  00000+0 0  9995
2 51850   0.0187 174.6632 0000675 121.6817 164.1074  1.00272027   879
ZHONGXING-6D            
1 52255U 22038A   24328.47762568 -.00000346  00000+0  00000+0 0  9990
2 52255   0.0191 275.9799 0003165 339.7808 104.2220  1.00270051  9694
NILESAT 301             
1 52817U 22061A   24328.44077352 -.00000050  00000+0  00000+0 0  9999
2 52817   0.0590  35.5746 0003511 230.8674 308.1575  1.00272663  9015
CMS-02 (GSAT 24)        
1 52903U 22067A   24326.38385767 -.00000163  00000+0  00000+0 0  9999
2 52903   0.0503  99.8716 0004794 162.4435  19.7650  1.00272034  8867
MEASAT 3D               
1 52904U 22067B   24328.38714295 -.00000235  00000+0  00000+0 0  9994
2 52904   0.0313  11.6478 0003258 269.3283  12.7787  1.00271766  8928
SES-22                  
1 52933U 22071A   24328.48427537  .00000112  00000+0  00000+0 0  9995
2 52933   0.0121 296.4414 0003214 320.0391 201.8144  1.00273346  1801
WFOV (USA 332)          
1 52940U 22073A   24328.60137913 -.00000353  00000+0  00000+0 0  9993
2 52940   2.2380  85.9896 0001451 102.1612 210.7168  1.00271521  8648
TIANLIAN 2-03           
1 53100U 22078A   24327.79762714  .00000077  00000+0  00000+0 0  9991
2 53100   0.8206 278.9590 0002561 338.9240 102.1066  1.00273079  8823
SBIRS GEO-6 (USA 336)   
1 53355U 22092A   24328.56336038 -.00000289  00000+0  00000+0 0  9997
2 53355   4.3252 311.7174 0002344 300.8525 152.2799  1.00271786  8510
EUTELSAT KONNECT VHTS   
1 53765U 22110A   24327.17271400  .00000020  00000+0  00000+0 0  9992
2 53765   0.0561 102.6971 0002845 124.0864 259.7493  1.00268125  1106
ZHONGXING-1E            
1 53813U 22112A   24328.52806317 -.00000142  00000+0  00000+0 0  9995
2 53813   0.0336  80.4647 0004852 184.3799  69.6705  1.00272044  8127
SES-20                  
1 53960U 22123A   24328.23055557 -.00000094  00000+0  00000+0 0  9996
2 53960   0.0291 118.1932 0000916 337.3195 307.0851  1.00269512  7804
SES-21                  
1 53961U 22123B   24325.98401449  .00000071  00000+0  00000+0 0  9995
2 53961   0.0249  28.1176 0000942 206.0467  49.5656  1.00270029  1463
GALAXY 33 (G-33)        
1 54026U 22128A   24325.65755564  .00000080  00000+0  00000+0 0  9997
2 54026   0.0152 346.5005 0001891 251.4161 285.9794  1.00272831  7992
GALAXY 34 (G-34)        
1 54027U 22128B   24328.41485781  .00000066  00000+0  00000+0 0  9990
2 54027   0.0112 337.6075 0001464 263.1939 202.4474  1.00271784  8183
ANGOSAT 2               
1 54033U 22131A   24326.58637618  .00000138  00000+0  00000+0 0  9995
2 54033   0.0344 112.8438 0001915 195.2289 347.0998  1.00270772  7729
EUTELSAT HOTBIRD 13F    
1 54048U 22134A   24327.23868757  .00000091  00000+0  00000+0 0  9995
2 54048   0.0611 291.1360 0002207  63.9680 165.5519  1.00270891  7643
LDPE-2                  
1 54219U 22144A   24328.42291802 -.00000171  00000+0  00000+0 0  9999
2 54219   4.1984  64.8154 0000732 253.9720 154.1010  1.00798150  6095
EUTELSAT HOTBIRD 13G    
1 54225U 22146A   24325.91993961  .00000089  00000+0  00000+0 0  9991
2 54225   0.0527 251.9496 0001889 291.7833 220.8747  1.00270704  1719
ZHONGXING-19            
1 54230U 22148A   24328.56438566 -.00000072  00000+0  00000+0 0  9991
2 54230   0.0254 272.2443 0008758 332.7468 184.5721  1.00272666  7658
GALAXY 31 (G-31)        
1 54243U 22153A   24325.79218181  .00000015  00000+0  00000+0 0  9998
2 54243   0.0080 306.6163 0001741 306.4303 331.4486  1.00272431  1386
GALAXY 32 (G-32)        
1 54244U 22153B   24327.50535475 -.00000170  00000+0  00000+0 0  9991
2 54244   0.0084 341.0784 0001621 317.6886 214.1584  1.00272153  7417
EUTELSAT 10B            
1 54259U 22157A   24327.86507833  .00000075  00000+0  00000+0 0  9990
2 54259   0.0574  99.5893 0000363 327.0208 317.1869  1.00273334  7320
GALAXY 35 (G-35)        
1 54741U 22170A   24328.51855022 -.00000154  00000+0  00000+0 0  9999
2 54741   0.0241  75.3791 0002125 168.8450 272.3394  1.00271392  7174
GALAXY 36 (G-36)        
1 54742U 22170B   24327.92249484 -.00000179  00000+0  00000+0 0  9990
2 54742   0.0187 282.4830 0000610 224.9005 158.1229  1.00271461  7047
METEOSAT-12 (MTG-I1)    
1 54743U 22170C   24328.44077352  .00000001  00000+0  00000+0 0  9995
2 54743   0.6137  41.9833 0001191 185.0519 354.1432  1.00272924  7254
SHIJIAN-23 (SJ-23)      
1 55131U 23002A   24328.63726230 -.00000352  00000+0  00000+0 0  9999
2 55131   2.2448  85.6365 0001971 185.7488 137.5076  1.00457612  6976
USA 340                 
1 55138U 22144E   24315.06718951 -.00000256  00000+0  00000+0 0  9999
2 55138   4.1331  65.5964 0001704 136.6036 196.5881  0.99557898  5900
APSTAR-6E               
1 55239U 23005A   24325.89366807 -.00000317  00000+0  00000+0 0  9997
2 55239   0.0503 102.1460 0002525 351.9564  62.0510  1.00265554 12943
USA 342                 
1 55263U 23008A   24326.52340885  .00000141  00000+0  00000+0 0  9990
2 55263   0.0120 321.0050 0000293 186.4710 125.8872  1.00270082  6782
LDPE-3A                 
1 55264U 23008B   24328.59570689 -.00000353  00000+0  00000+0 0  9993
2 55264   0.7448  87.9242 0000332 202.2538 103.1687  1.00457465  6092
ELEKTRO-L 4             
1 55506U 23016A   24328.36490641 -.00000051  00000+0  00000+0 0  9990
2 55506   0.0070 173.1847 0003399  85.4114 101.3833  1.00271753  6593
